[{"OBJECT_NAME":"STARLINK-33944","OBJECT_ID":"2025-117G","EPOCH":"2026-03-07T04:18:01.774080","MEAN_MOTION":15.30201682,"ECCENTRICITY":0.0001354,"INCLINATION":53.159,"RA_OF_ASC_NODE":51.1072,"ARG_OF_PERICENTER":74.2656,"MEAN_ANOMALY":285.8494,"EPHEMERIS_TYPE":0,"CLASSIFICATION_TYPE":"U","NORAD_CAT_ID":64209,"ELEMENT_SET_NO":999,"REV_AT_EPOCH":4417,"BSTAR":0.00080514,"MEAN_MOTION_DOT":0.00023564,"MEAN_MOTION_DDOT":0},{"OBJECT_NAME":"STARLINK-34310","OBJECT_ID":"2025-117H","EPOCH":"2026-03-07T04:07:23.329056","MEAN_MOTION":15.302147,"ECCENTRICITY":0.0001507,"INCLINATION":53.1584,"RA_OF_ASC_NODE":51.0515,"ARG_OF_PERICENTER":107.798,"MEAN_ANOMALY":252.3186,"EPHEMERIS_TYPE":0,"CLASSIFICATION_TYPE":"U","NORAD_CAT_ID":64210,"ELEMENT_SET_NO":999,"REV_AT_EPOCH":4414,"BSTAR":0.00076057,"MEAN_MOTION_DOT":0.00022244,"MEAN_MOTION_DDOT":0},{"OBJECT_NAME":"STARLINK-34258","OBJECT_ID":"2025-117J","EPOCH":"2026-03-07T03:50:40.327872","MEAN_MOTION":15.302243,"ECCENTRICITY":0.000122,"INCLINATION":53.1599,"RA_OF_ASC_NODE":50.9791,"ARG_OF_PERICENTER":118.9821,"MEAN_ANOMALY":241.1302,"EPHEMERIS_TYPE":0,"CLASSIFICATION_TYPE":"U","NORAD_CAT_ID":64211,"ELEMENT_SET_NO":999,"REV_AT_EPOCH":4414,"BSTAR":0.0013719,"MEAN_MOTION_DOT":0.00040525,"MEAN_MOTION_DDOT":0},{"OBJECT_NAME":"STARLINK-34284","OBJECT_ID":"2025-117K","EPOCH":"2026-03-07T03:59:47.453280","MEAN_MOTION":15.30200483,"ECCENTRICITY":0.0001461,"INCLINATION":53.1596,"RA_OF_ASC_NODE":51.0189,"ARG_OF_PERICENTER":96.8319,"MEAN_ANOMALY":263.2848,"EPHEMERIS_TYPE":0,"CLASSIFICATION_TYPE":"U","NORAD_CAT_ID":64212,"ELEMENT_SET_NO":999,"REV_AT_EPOCH":4414,"BSTAR":0.00070335,"MEAN_MOTION_DOT":0.0002053,"MEAN_MOTION_DDOT":0},{"OBJECT_NAME":"STARLINK-34332","OBJECT_ID":"2025-117L","EPOCH":"2026-03-07T03:46:16.578912","MEAN_MOTION":15.30206561,"ECCENTRICITY":0.0001348,"INCLINATION":53.161,"RA_OF_ASC_NODE":51.6667,"ARG_OF_PERICENTER":113.566,"MEAN_ANOMALY":246.5483,"EPHEMERIS_TYPE":0,"CLASSIFICATION_TYPE":"U","NORAD_CAT_ID":64213,"ELEMENT_SET_NO":999,"REV_AT_EPOCH":4416,"BSTAR":0.00082101,"MEAN_MOTION_DOT":0.0002404,"MEAN_MOTION_DDOT":0},{"OBJECT_NAME":"STARLINK-34283","OBJECT_ID":"2025-117M","EPOCH":"2026-03-07T03:53:42.669888","MEAN_MOTION":15.30221763,"ECCENTRICITY":0.0001659,"INCLINATION":53.16,"RA_OF_ASC_NODE":50.9947,"ARG_OF_PERICENTER":129.9243,"MEAN_ANOMALY":230.1903,"EPHEMERIS_TYPE":0,"CLASSIFICATION_TYPE":"U","NORAD_CAT_ID":64214,"ELEMENT_SET_NO":999,"REV_AT_EPOCH":4414,"BSTAR":0.0010692,"MEAN_MOTION_DOT":0.00031463,"MEAN_MOTION_DDOT":0},{"OBJECT_NAME":"STARLINK-34349","OBJECT_ID":"2025-117N","EPOCH":"2026-03-07T03:12:52.255296","MEAN_MOTION":15.30221095,"ECCENTRICITY":0.0001561,"INCLINATION":53.1616,"RA_OF_ASC_NODE":51.5242,"ARG_OF_PERICENTER":94.1519,"MEAN_ANOMALY":265.9661,"EPHEMERIS_TYPE":0,"CLASSIFICATION_TYPE":"U","NORAD_CAT_ID":64215,"ELEMENT_SET_NO":999,"REV_AT_EPOCH":4413,"BSTAR":0.00093903,"MEAN_MOTION_DOT":0.00027574,"MEAN_MOTION_DDOT":0},{"OBJECT_NAME":"STARLINK-34296","OBJECT_ID":"2025-117P","EPOCH":"2026-03-07T04:22:35.200704","MEAN_MOTION":15.30199763,"ECCENTRICITY":0.0001281,"INCLINATION":53.1591,"RA_OF_ASC_NODE":51.116,"ARG_OF_PERICENTER":98.2303,"MEAN_ANOMALY":261.8843,"EPHEMERIS_TYPE":0,"CLASSIFICATION_TYPE":"U","NORAD_CAT_ID":64216,"ELEMENT_SET_NO":999,"REV_AT_EPOCH":4417,"BSTAR":0.00045732,"MEAN_MOTION_DOT":0.00013209,"MEAN_MOTION_DDOT":0},{"OBJECT_NAME":"STARLINK-34320","OBJECT_ID":"2025-117Q","EPOCH":"2026-03-07T03:43:14.456352","MEAN_MOTION":15.30209641,"ECCENTRICITY":0.000114,"INCLINATION":53.1621,"RA_OF_ASC_NODE":51.659,"ARG_OF_PERICENTER":95.0457,"MEAN_ANOMALY":265.0674,"EPHEMERIS_TYPE":0,"CLASSIFICATION_TYPE":"U","NORAD_CAT_ID":64217,"ELEMENT_SET_NO":999,"REV_AT_EPOCH":4413,"BSTAR":0.0011391,"MEAN_MOTION_DOT":0.00033541,"MEAN_MOTION_DDOT":0},{"OBJECT_NAME":"STARLINK-34300","OBJECT_ID":"2025-117R","EPOCH":"2026-03-07T04:08:54.523392","MEAN_MOTION":15.30217903,"ECCENTRICITY":0.0001181,"INCLINATION":53.1595,"RA_OF_ASC_NODE":51.0594,"ARG_OF_PERICENTER":106.5145,"MEAN_ANOMALY":253.5986,"EPHEMERIS_TYPE":0,"CLASSIFICATION_TYPE":"U","NORAD_CAT_ID":64218,"ELEMENT_SET_NO":999,"REV_AT_EPOCH":4414,"BSTAR":0.0010741,"MEAN_MOTION_DOT":0.00031606,"MEAN_MOTION_DDOT":0},{"OBJECT_NAME":"STARLINK-34323","OBJECT_ID":"2025-117S","EPOCH":"2026-03-07T04:16:30.285120","MEAN_MOTION":15.30218618,"ECCENTRICITY":0.000117,"INCLINATION":53.1592,"RA_OF_ASC_NODE":51.0908,"ARG_OF_PERICENTER":101.7692,"MEAN_ANOMALY":258.344,"EPHEMERIS_TYPE":0,"CLASSIFICATION_TYPE":"U","NORAD_CAT_ID":64219,"ELEMENT_SET_NO":999,"REV_AT_EPOCH":4417,"BSTAR":0.0010639,"MEAN_MOTION_DOT":0.00031301,"MEAN_MOTION_DDOT":0},{"OBJECT_NAME":"STARLINK-34328","OBJECT_ID":"2025-117T","EPOCH":"2026-03-07T04:37:46.798464","MEAN_MOTION":15.3020661,"ECCENTRICITY":0.0001097,"INCLINATION":53.1593,"RA_OF_ASC_NODE":51.1829,"ARG_OF_PERICENTER":96.0089,"MEAN_ANOMALY":264.1037,"EPHEMERIS_TYPE":0,"CLASSIFICATION_TYPE":"U","NORAD_CAT_ID":64220,"ELEMENT_SET_NO":999,"REV_AT_EPOCH":4414,"BSTAR":0.00055928,"MEAN_MOTION_DOT":0.00016245,"MEAN_MOTION_DDOT":0},{"OBJECT_NAME":"STARLINK-34326","OBJECT_ID":"2025-117U","EPOCH":"2026-03-07T04:40:49.286496","MEAN_MOTION":15.30216973,"ECCENTRICITY":0.0001862,"INCLINATION":53.1604,"RA_OF_ASC_NODE":51.1982,"ARG_OF_PERICENTER":107.5806,"MEAN_ANOMALY":252.5398,"EPHEMERIS_TYPE":0,"CLASSIFICATION_TYPE":"U","NORAD_CAT_ID":64221,"ELEMENT_SET_NO":999,"REV_AT_EPOCH":4417,"BSTAR":0.00088562,"MEAN_MOTION_DOT":0.00025976,"MEAN_MOTION_DDOT":0},{"OBJECT_NAME":"STARLINK-34318","OBJECT_ID":"2025-117V","EPOCH":"2026-03-07T03:17:25.757088","MEAN_MOTION":15.30219994,"ECCENTRICITY":0.000139,"INCLINATION":53.1606,"RA_OF_ASC_NODE":51.5448,"ARG_OF_PERICENTER":117.5886,"MEAN_ANOMALY":242.5256,"EPHEMERIS_TYPE":0,"CLASSIFICATION_TYPE":"U","NORAD_CAT_ID":64222,"ELEMENT_SET_NO":999,"REV_AT_EPOCH":4413,"BSTAR":0.00085623,"MEAN_MOTION_DOT":0.00025101,"MEAN_MOTION_DDOT":0},{"OBJECT_NAME":"STARLINK-34337","OBJECT_ID":"2025-117W","EPOCH":"2026-03-07T03:26:31.316064","MEAN_MOTION":15.30207279,"ECCENTRICITY":5.36e-5,"INCLINATION":53.1609,"RA_OF_ASC_NODE":51.5877,"ARG_OF_PERICENTER":118.2518,"MEAN_ANOMALY":241.8537,"EPHEMERIS_TYPE":0,"CLASSIFICATION_TYPE":"U","NORAD_CAT_ID":64223,"ELEMENT_SET_NO":999,"REV_AT_EPOCH":4413,"BSTAR":0.00085651,"MEAN_MOTION_DOT":0.000251,"MEAN_MOTION_DDOT":0},{"OBJECT_NAME":"STARLINK-34304","OBJECT_ID":"2025-117X","EPOCH":"2026-03-07T04:27:10.945440","MEAN_MOTION":15.30189858,"ECCENTRICITY":0.0002153,"INCLINATION":53.1599,"RA_OF_ASC_NODE":51.1375,"ARG_OF_PERICENTER":96.2611,"MEAN_ANOMALY":263.8635,"EPHEMERIS_TYPE":0,"CLASSIFICATION_TYPE":"U","NORAD_CAT_ID":64224,"ELEMENT_SET_NO":999,"REV_AT_EPOCH":4417,"BSTAR":0.001708,"MEAN_MOTION_DOT":0.00050556,"MEAN_MOTION_DDOT":0},{"OBJECT_NAME":"STARLINK-34289","OBJECT_ID":"2025-117Y","EPOCH":"2026-03-07T04:42:20.383200","MEAN_MOTION":15.3020104,"ECCENTRICITY":0.0001411,"INCLINATION":53.1602,"RA_OF_ASC_NODE":51.1988,"ARG_OF_PERICENTER":85.2149,"MEAN_ANOMALY":274.9013,"EPHEMERIS_TYPE":0,"CLASSIFICATION_TYPE":"U","NORAD_CAT_ID":64225,"ELEMENT_SET_NO":999,"REV_AT_EPOCH":4417,"BSTAR":0.00067713,"MEAN_MOTION_DOT":0.00019749,"MEAN_MOTION_DDOT":0}]
