STARLINK-33944          
1 64209U 25117G   26066.17918720  .00023564  00000+0  80514-3 0  9992
2 64209  53.1590  51.1072 0001354  74.2656 285.8494 15.30201682 44179
STARLINK-34310          
1 64210U 25117H   26066.17179779  .00022244  00000+0  76057-3 0  9998
2 64210  53.1584  51.0515 0001507 107.7980 252.3186 15.30214700 44146
STARLINK-34258          
1 64211U 25117J   26066.16018898  .00040525  00000+0  13719-2 0  9999
2 64211  53.1599  50.9791 0001220 118.9821 241.1302 15.30224300 44140
STARLINK-34284          
1 64212U 25117K   26066.16652145  .00020530  00000+0  70335-3 0  9991
2 64212  53.1596  51.0189 0001461  96.8319 263.2848 15.30200483 44140
STARLINK-34332          
1 64213U 25117L   26066.15713633  .00024040  00000+0  82101-3 0  9995
2 64213  53.1610  51.6667 0001348 113.5660 246.5483 15.30206561 44169
STARLINK-34283          
1 64214U 25117M   26066.16229942  .00031463  00000+0  10692-2 0  9994
2 64214  53.1600  50.9947 0001659 129.9243 230.1903 15.30221763 44140
STARLINK-34349          
1 64215U 25117N   26066.13393814  .00027574  00000+0  93903-3 0  9997
2 64215  53.1616  51.5242 0001561  94.1519 265.9661 15.30221095 44138
STARLINK-34296          
1 64216U 25117P   26066.18235186  .00013209  00000+0  45732-3 0  9997
2 64216  53.1591  51.1160 0001281  98.2303 261.8843 15.30199763 44178
STARLINK-34320          
1 64217U 25117Q   26066.15502843  .00033541  00000+0  11391-2 0  9996
2 64217  53.1621  51.6590 0001140  95.0457 265.0674 15.30209641 44135
STARLINK-34300          
1 64218U 25117R   26066.17285328  .00031606  00000+0  10741-2 0  9993
2 64218  53.1595  51.0594 0001181 106.5145 253.5986 15.30217903 44140
STARLINK-34323          
1 64219U 25117S   26066.17812830  .00031301  00000+0  10639-2 0  9996
2 64219  53.1592  51.0908 0001170 101.7692 258.3440 15.30218618 44174
STARLINK-34328          
1 64220U 25117T   26066.19290276  .00016245  00000+0  55928-3 0  9995
2 64220  53.1593  51.1829 0001097  96.0089 264.1037 15.30206610 44147
STARLINK-34326          
1 64221U 25117U   26066.19501489  .00025976  00000+0  88562-3 0  9998
2 64221  53.1604  51.1982 0001862 107.5806 252.5398 15.30216973 44173
STARLINK-34318          
1 64222U 25117V   26066.13710367  .00025101  00000+0  85623-3 0  9995
2 64222  53.1606  51.5448 0001390 117.5886 242.5256 15.30219994 44136
STARLINK-34337          
1 64223U 25117W   26066.14341801  .00025100  00000+0  85651-3 0  9990
2 64223  53.1609  51.5877 0000536 118.2518 241.8537 15.30207279 44134
STARLINK-34304          
1 64224U 25117X   26066.18554335  .00050556  00000+0  17080-2 0  9996
2 64224  53.1599  51.1375 0002153  96.2611 263.8635 15.30189858 44177
STARLINK-34289          
1 64225U 25117Y   26066.19606925  .00019749  00000+0  67713-3 0  9999
2 64225  53.1602  51.1988 0001411  85.2149 274.9013 15.30201040 44174
